{"type": "FeatureCollection", "features": [ {"type": "Feature", "properties": {"norad_id": 43262, "name": "GAOFEN-1 04", "group": "resource", "lat": -16.279883724731956, "lon": 45.19363584281735, "alt_km": 645.1594454068936, "timestamp": "2025-12-10T23:33:12.484380+00:00", "meta": {"OBJECT_NAME": "GAOFEN-1 04", "OBJECT_ID": "2018-031D", "EPOCH": "2025-12-10T15:29:42.796608", "MEAN_MOTION": 14.76441802, "ECCENTRICITY": 0.00011642, "INCLINATION": 98.0805, "RA_OF_ASC_NODE": 42.4799, "ARG_OF_PERICENTER": 54.8159, "MEAN_ANOMALY": 305.3159, "EPHEMERIS_TYPE": 0, "CLASSIFICATION_TYPE": "U", "NORAD_CAT_ID": 43262, "ELEMENT_SET_NO": 999, "REV_AT_EPOCH": 41486, "BSTAR": 0.00017793079, "MEAN_MOTION_DOT": 1.186e-05, "MEAN_MOTION_DDOT": 0}, "tle": {"line1": "1 43262U 18031D   25344.64563422  .00001186  00000+0  17793-3 0  9995", "line2": "2 43262  98.0805  42.4799 0001164  54.8159 305.3159 14.76441802414864"}}, "geometry": {"type": "Point", "coordinates": [45.19363584281735, -16.279883724731956]}}, {"type": "Feature", "properties": {"norad_id": 43437, "name": "SENTINEL-3B", "group": "resource", "lat": 73.16290085007135, "lon": -99.69873590415298, "alt_km": 794.4804493631045, "timestamp": "2025-12-10T23:33:12.484389+00:00", "meta": {"OBJECT_NAME": "SENTINEL-3B", "OBJECT_ID": "2018-039A", "EPOCH": "2025-12-10T11:17:01.773888", "MEAN_MOTION": 14.26741565, "ECCENTRICITY": 0.00015632, "INCLINATION": 98.6269, "RA_OF_ASC_NODE": 49.6878, "ARG_OF_PERICENTER": 105.1212, "MEAN_ANOMALY": 255.0141, "EPHEMERIS_TYPE": 0, "CLASSIFICATION_TYPE": "U", "NORAD_CAT_ID": 43437, "ELEMENT_SET_NO": 999, "REV_AT_EPOCH": 39721, "BSTAR": 0.00011945931, "MEAN_MOTION_DOT": 2.45e-06, "MEAN_MOTION_DDOT": 0}, "tle": {"line1": "1 43437U 18039A   25344.47015942  .00000245  00000+0  11946-3 0  9996", "line2": "2 43437  98.6269  49.6878 0001563 105.1212 255.0141 14.26741565397213"}}, "geometry": {"type": "Point", "coordinates": [-99.69873590415298, 73.16290085007135]}}, {"type": "Feature", "properties": {"norad_id": 43461, "name": "GAOFEN-5 01", "group": "resource", "lat": -59.70440680244047, "lon": 113.20935860939875, "alt_km": 699.2107773273419, "timestamp": "2025-12-10T23:33:12.484400+00:00", "meta": {"OBJECT_NAME": "GAOFEN-5 01", "OBJECT_ID": "2018-043A", "EPOCH": "2025-12-10T10:56:38.203872", "MEAN_MOTION": 14.60406317, "ECCENTRICITY": 0.00011088, "INCLINATION": 98.4323, "RA_OF_ASC_NODE": 307.3833, "ARG_OF_PERICENTER": 349.3641, "MEAN_ANOMALY": 10.7535, "EPHEMERIS_TYPE": 0, "CLASSIFICATION_TYPE": "U", "NORAD_CAT_ID": 43461, "ELEMENT_SET_NO": 999, "REV_AT_EPOCH": 40414, "BSTAR": 0.00018567509, "MEAN_MOTION_DOT": 8.5e-06, "MEAN_MOTION_DDOT": 0}, "tle": {"line1": "1 43461U 18043A   25344.45599773  .00000850  00000+0  18568-3 0  9994", "line2": "2 43461  98.4323 307.3833 0001108 349.3641  10.7535 14.60406317404142"}}, "geometry": {"type": "Point", "coordinates": [113.20935860939875, -59.70440680244047]}}, {"type": "Feature", "properties": {"norad_id": 43484, "name": "GAOFEN-6", "group": "resource", "lat": 45.06745088394925, "lon": -122.79261571309817, "alt_km": 632.5256830719636, "timestamp": "2025-12-10T23:33:12.484410+00:00", "meta": {"OBJECT_NAME": "GAOFEN-6", "OBJECT_ID": "2018-048A", "EPOCH": "2025-12-10T14:48:59.586912", "MEAN_MOTION": 14.76561016, "ECCENTRICITY": 0.00132952, "INCLINATION": 97.8029, "RA_OF_ASC_NODE": 48.9553, "ARG_OF_PERICENTER": 69.6137, "MEAN_ANOMALY": 290.65, "EPHEMERIS_TYPE": 0, "CLASSIFICATION_TYPE": "U", "NORAD_CAT_ID": 43484, "ELEMENT_SET_NO": 999, "REV_AT_EPOCH": 40556, "BSTAR": 0.00024095518, "MEAN_MOTION_DOT": 1.634e-05, "MEAN_MOTION_DDOT": 0}, "tle": {"line1": "1 43484U 18048A   25344.61735633  .00001634  00000+0  24096-3 0  9993", "line2": "2 43484  97.8029  48.9553 0013295  69.6137 290.6500 14.76561016405565"}}, "geometry": {"type": "Point", "coordinates": [-122.79261571309817, 45.06745088394925]}}, {"type": "Feature", "properties": {"norad_id": 43585, "name": "GAOFEN-11 01", "group": "resource", "lat": -21.759555121447985, "lon": -134.94438501132504, "alt_km": 426.2819184280979, "timestamp": "2025-12-10T23:33:12.484419+00:00", "meta": {"OBJECT_NAME": "GAOFEN-11 01", "OBJECT_ID": "2018-063A", "EPOCH": "2025-12-10T14:55:59.625696", "MEAN_MOTION": 15.49127759, "ECCENTRICITY": 0.00045293, "INCLINATION": 97.1557, "RA_OF_ASC_NODE": 47.5739, "ARG_OF_PERICENTER": 324.2708, "MEAN_ANOMALY": 35.8239, "EPHEMERIS_TYPE": 0, "CLASSIFICATION_TYPE": "U", "NORAD_CAT_ID": 43585, "ELEMENT_SET_NO": 999, "REV_AT_EPOCH": 41109, "BSTAR": 0.00044766197, "MEAN_MOTION_DOT": 0.00024289, "MEAN_MOTION_DDOT": 0}, "tle": {"line1": "1 43585U 18063A   25344.62221789  .00024289  00000+0  44766-3 0  9992", "line2": "2 43585  97.1557  47.5739 0004529 324.2708  35.8239 15.49127759411097"}}, "geometry": {"type": "Point", "coordinates": [-134.94438501132504, -21.759555121447985]}}, {"type": "Feature", "properties": {"norad_id": 43613, "name": "ICESAT-2", "group": "resource", "lat": 70.1292763176926, "lon": -125.29812143941558, "alt_km": 473.938992440143, "timestamp": "2025-12-10T23:33:12.484428+00:00", "meta": {"OBJECT_NAME": "ICESAT-2", "OBJECT_ID": "2018-070A", "EPOCH": "2025-12-10T13:49:06.606624", "MEAN_MOTION": 15.28306119, "ECCENTRICITY": 0.0002501, "INCLINATION": 92.0044, "RA_OF_ASC_NODE": 240.1533, "ARG_OF_PERICENTER": 154.3618, "MEAN_ANOMALY": 205.7755, "EPHEMERIS_TYPE": 0, "CLASSIFICATION_TYPE": "U", "NORAD_CAT_ID": 43613, "ELEMENT_SET_NO": 999, "REV_AT_EPOCH": 40365, "BSTAR": 0.00067335508, "MEAN_MOTION_DOT": 0.00018577, "MEAN_MOTION_DDOT": 0}, "tle": {"line1": "1 43613U 18070A   25344.57577091  .00018577  00000+0  67336-3 0  9997", "line2": "2 43613  92.0044 240.1533 0002501 154.3618 205.7755 15.28306119403657"}}, "geometry": {"type": "Point", "coordinates": [-125.29812143941558, 70.1292763176926]}}, {"type": "Feature", "properties": {"norad_id": 43719, "name": "HYSIS", "group": "resource", "lat": 23.31134112083518, "lon": -128.55407325187346, "alt_km": 633.4059473162624, "timestamp": "2025-12-10T23:33:12.484437+00:00", "meta": {"OBJECT_NAME": "HYSIS", "OBJECT_ID": "2018-096A", "EPOCH": "2025-12-10T14:43:42.047040", "MEAN_MOTION": 14.78636617, "ECCENTRICITY": 0.0001507, "INCLINATION": 98.0095, "RA_OF_ASC_NODE": 47.6016, "ARG_OF_PERICENTER": 55.7555, "MEAN_ANOMALY": 304.3799, "EPHEMERIS_TYPE": 0, "CLASSIFICATION_TYPE": "U", "NORAD_CAT_ID": 43719, "ELEMENT_SET_NO": 999, "REV_AT_EPOCH": 37955, "BSTAR": 0.00032425416, "MEAN_MOTION_DOT": 2.323e-05, "MEAN_MOTION_DDOT": 0}, "tle": {"line1": "1 43719U 18096A   25344.61368110  .00002323  00000+0  32425-3 0  9990", "line2": "2 43719  98.0095  47.6016 0001507  55.7555 304.3799 14.78636617379559"}}, "geometry": {"type": "Point", "coordinates": [-128.55407325187346, 23.31134112083518]}}, {"type": "Feature", "properties": {"norad_id": 43783, "name": "KAZSTSAT", "group": "resource", "lat": -78.82001676945775, "lon": 158.74288323448633, "alt_km": 575.2926013946944, "timestamp": "2025-12-10T23:33:12.484447+00:00", "meta": {"OBJECT_NAME": "KAZSTSAT", "OBJECT_ID": "2018-099AB", "EPOCH": "2025-12-10T12:46:45.637824", "MEAN_MOTION": 14.99342701, "ECCENTRICITY": 0.00060019, "INCLINATION": 97.4559, "RA_OF_ASC_NODE": 19.8122, "ARG_OF_PERICENTER": 339.526, "MEAN_ANOMALY": 20.5722, "EPHEMERIS_TYPE": 0, "CLASSIFICATION_TYPE": "U", "NORAD_CAT_ID": 43783, "ELEMENT_SET_NO": 999, "REV_AT_EPOCH": 38303, "BSTAR": 0.00019655623, "MEAN_MOTION_DOT": 2.347e-05, "MEAN_MOTION_DDOT": 0}, "tle": {"line1": "1 43783U 18099AB  25344.53247266  .00002347  00000+0  19656-3 0  9990", "line2": "2 43783  97.4559  19.8122 0006001 339.5260  20.5722 14.99342701383039"}}, "geometry": {"type": "Point", "coordinates": [158.74288323448633, -78.82001676945775]}}, {"type": "Feature", "properties": {"norad_id": 43831, "name": "SAUDISAT 5A", "group": "resource", "lat": 31.23681057651593, "lon": -130.31308196003772, "alt_km": 484.10228407382965, "timestamp": "2025-12-10T23:33:12.484456+00:00", "meta": {"OBJECT_NAME": "SAUDISAT 5A", "OBJECT_ID": "2018-102A", "EPOCH": "2025-12-10T15:02:08.231424", "MEAN_MOTION": 15.25614394, "ECCENTRICITY": 0.00118111, "INCLINATION": 97.3352, "RA_OF_ASC_NODE": 44.8579, "ARG_OF_PERICENTER": 82.6358, "MEAN_ANOMALY": 277.6223, "EPHEMERIS_TYPE": 0, "CLASSIFICATION_TYPE": "U", "NORAD_CAT_ID": 43831, "ELEMENT_SET_NO": 999, "REV_AT_EPOCH": 38690, "BSTAR": 0.00036816447, "MEAN_MOTION_DOT": 9.307e-05, "MEAN_MOTION_DDOT": 0}, "tle": {"line1": "1 43831U 18102A   25344.62648416  .00009307  00000+0  36816-3 0  9991", "line2": "2 43831  97.3352  44.8579 0011811  82.6358 277.6223 15.25614394386906"}}, "geometry": {"type": "Point", "coordinates": [-130.31308196003772, 31.23681057651593]}}, {"type": "Feature", "properties": {"norad_id": 43833, "name": "SAUDISAT 5B", "group": "resource", "lat": -18.35631711603984, "lon": -134.5114869385412, "alt_km": 496.56772026721956, "timestamp": "2025-12-10T23:33:12.484466+00:00", "meta": {"OBJECT_NAME": "SAUDISAT 5B", "OBJECT_ID": "2018-102C", "EPOCH": "2025-12-10T14:49:08.397984", "MEAN_MOTION": 15.25967264, "ECCENTRICITY": 0.00125131, "INCLINATION": 97.3447, "RA_OF_ASC_NODE": 47.5839, "ARG_OF_PERICENTER": 85.094, "MEAN_ANOMALY": 275.1727, "EPHEMERIS_TYPE": 0, "CLASSIFICATION_TYPE": "U", "NORAD_CAT_ID": 43833, "ELEMENT_SET_NO": 999, "REV_AT_EPOCH": 38701, "BSTAR": 0.00035555313, "MEAN_MOTION_DOT": 9.084e-05, "MEAN_MOTION_DDOT": 0}, "tle": {"line1": "1 43833U 18102C   25344.61745831  .00009084  00000+0  35555-3 0  9992", "line2": "2 43833  97.3447  47.5839 0012513  85.0940 275.1727 15.25967264387018"}}, "geometry": {"type": "Point", "coordinates": [-134.5114869385412, -18.35631711603984]}}]}